{"type": "FeatureCollection", "features": [ {"type": "Feature", "properties": {"norad_id": 37036, "name": "FENGYUN 1C DEB", "group": "fengyun-1c-debris", "lat": -44.55073064914194, "lon": 154.54011410359902, "alt_km": 978.1816278114566, "timestamp": "2025-12-16T15:45:51.334945+00:00", "meta": {"OBJECT_NAME": "FENGYUN 1C DEB", "OBJECT_ID": "1999-025EDU", "EPOCH": "2025-12-15T06:11:35.757600", "MEAN_MOTION": 14.03572053, "ECCENTRICITY": 0.01240817, "INCLINATION": 98.7149, "RA_OF_ASC_NODE": 341.884, "ARG_OF_PERICENTER": 48.1925, "MEAN_ANOMALY": 312.9762, "EPHEMERIS_TYPE": 0, "CLASSIFICATION_TYPE": "U", "NORAD_CAT_ID": 37036, "ELEMENT_SET_NO": 999, "REV_AT_EPOCH": 63783, "BSTAR": 0.00041055763, "MEAN_MOTION_DOT": 6.48e-06, "MEAN_MOTION_DDOT": 0}, "tle": {"line1": "1 37036U 99025EDU 25349.25805275  .00000648  00000+0  41056-3 0  9997", "line2": "2 37036  98.7149 341.8840 0124081  48.1925 312.9762 14.03572053637839"}}, "geometry": {"type": "Point", "coordinates": [154.54011410359902, -44.55073064914194]}}, {"type": "Feature", "properties": {"norad_id": 37044, "name": "FENGYUN 1C DEB", "group": "fengyun-1c-debris", "lat": -80.33337138222136, "lon": 164.41592539196134, "alt_km": 1191.9276445107253, "timestamp": "2025-12-16T15:45:51.334955+00:00", "meta": {"OBJECT_NAME": "FENGYUN 1C DEB", "OBJECT_ID": "1999-025EEC", "EPOCH": "2025-12-15T13:56:51.493056", "MEAN_MOTION": 13.70865137, "ECCENTRICITY": 0.05083782, "INCLINATION": 98.9634, "RA_OF_ASC_NODE": 95.5012, "ARG_OF_PERICENTER": 153.8621, "MEAN_ANOMALY": 208.9173, "EPHEMERIS_TYPE": 0, "CLASSIFICATION_TYPE": "U", "NORAD_CAT_ID": 37044, "ELEMENT_SET_NO": 999, "REV_AT_EPOCH": 83897, "BSTAR": 0.0023464503, "MEAN_MOTION_DOT": 5.238e-05, "MEAN_MOTION_DDOT": 0}, "tle": {"line1": "1 37044U 99025EEC 25349.58115154  .00005238  00000+0  23465-2 0  9995", "line2": "2 37044  98.9634  95.5012 0508378 153.8621 208.9173 13.70865137838974"}}, "geometry": {"type": "Point", "coordinates": [164.41592539196134, -80.33337138222136]}}, {"type": "Feature", "properties": {"norad_id": 37046, "name": "FENGYUN 1C DEB", "group": "fengyun-1c-debris", "lat": -11.984572081161888, "lon": 6.636976879035124, "alt_km": 791.7180544316852, "timestamp": "2025-12-16T15:45:51.334965+00:00", "meta": {"OBJECT_NAME": "FENGYUN 1C DEB", "OBJECT_ID": "1999-025EEE", "EPOCH": "2025-12-13T20:24:25.794720", "MEAN_MOTION": 14.24846266, "ECCENTRICITY": 0.00488893, "INCLINATION": 98.5444, "RA_OF_ASC_NODE": 2.0767, "ARG_OF_PERICENTER": 303.8823, "MEAN_ANOMALY": 55.7711, "EPHEMERIS_TYPE": 0, "CLASSIFICATION_TYPE": "U", "NORAD_CAT_ID": 37046, "ELEMENT_SET_NO": 999, "REV_AT_EPOCH": 64197, "BSTAR": 0.00095077436, "MEAN_MOTION_DOT": 2.204e-05, "MEAN_MOTION_DDOT": 0}, "tle": {"line1": "1 37046U 99025EEE 25347.85029855  .00002204  00000+0  95077-3 0  9996", "line2": "2 37046  98.5444   2.0767 0048889 303.8823  55.7711 14.24846266641978"}}, "geometry": {"type": "Point", "coordinates": [6.636976879035124, -11.984572081161888]}}, {"type": "Feature", "properties": {"norad_id": 37048, "name": "FENGYUN 1C DEB", "group": "fengyun-1c-debris", "lat": 67.35125804532821, "lon": -170.3768052175572, "alt_km": 942.5497776673938, "timestamp": "2025-12-16T15:45:51.334975+00:00", "meta": {"OBJECT_NAME": "FENGYUN 1C DEB", "OBJECT_ID": "1999-025EEG", "EPOCH": "2025-12-08T21:18:37.158048", "MEAN_MOTION": 13.6513296, "ECCENTRICITY": 0.025318, "INCLINATION": 98.885, "RA_OF_ASC_NODE": 204.5179, "ARG_OF_PERICENTER": 159.5311, "MEAN_ANOMALY": 272.4204, "EPHEMERIS_TYPE": 0, "CLASSIFICATION_TYPE": "U", "NORAD_CAT_ID": 37048, "ELEMENT_SET_NO": 999, "REV_AT_EPOCH": 62117, "BSTAR": 0.00022488, "MEAN_MOTION_DOT": 1.89e-06, "MEAN_MOTION_DDOT": 0}, "tle": {"line1": "1 37048U 99025EEG 25342.88793007  .00000189  00000+0  22488-3 0  9999", "line2": "2 37048  98.8850 204.5179 0253180 159.5311 272.4204 13.65132960621178"}}, "geometry": {"type": "Point", "coordinates": [-170.3768052175572, 67.35125804532821]}}, {"type": "Feature", "properties": {"norad_id": 37054, "name": "FENGYUN 1C DEB", "group": "fengyun-1c-debris", "lat": 48.97474037445596, "lon": 162.93912361634165, "alt_km": 763.6829903370581, "timestamp": "2025-12-16T15:45:51.334985+00:00", "meta": {"OBJECT_NAME": "FENGYUN 1C DEB", "OBJECT_ID": "1999-025EEN", "EPOCH": "2025-12-12T16:25:24.585312", "MEAN_MOTION": 14.19450678, "ECCENTRICITY": 0.01011744, "INCLINATION": 98.5503, "RA_OF_ASC_NODE": 329.1465, "ARG_OF_PERICENTER": 105.4252, "MEAN_ANOMALY": 255.8127, "EPHEMERIS_TYPE": 0, "CLASSIFICATION_TYPE": "U", "NORAD_CAT_ID": 37054, "ELEMENT_SET_NO": 999, "REV_AT_EPOCH": 64428, "BSTAR": 0.00039484846, "MEAN_MOTION_DOT": 8.33e-06, "MEAN_MOTION_DDOT": 0}, "tle": {"line1": "1 37054U 99025EEN 25346.68431233  .00000833  00000+0  39485-3 0  9999", "line2": "2 37054  98.5503 329.1465 0101174 105.4252 255.8127 14.19450678644283"}}, "geometry": {"type": "Point", "coordinates": [162.93912361634165, 48.97474037445596]}}, {"type": "Feature", "properties": {"norad_id": 37056, "name": "FENGYUN 1C DEB", "group": "fengyun-1c-debris", "lat": 30.792559247229914, "lon": 7.79863633818606, "alt_km": 759.782867268078, "timestamp": "2025-12-16T15:45:51.334996+00:00", "meta": {"OBJECT_NAME": "FENGYUN 1C DEB", "OBJECT_ID": "1999-025EEQ", "EPOCH": "2025-12-15T08:09:36.578880", "MEAN_MOTION": 14.50459153, "ECCENTRICITY": 0.02688511, "INCLINATION": 98.9821, "RA_OF_ASC_NODE": 11.8015, "ARG_OF_PERICENTER": 138.0518, "MEAN_ANOMALY": 224.1615, "EPHEMERIS_TYPE": 0, "CLASSIFICATION_TYPE": "U", "NORAD_CAT_ID": 37056, "ELEMENT_SET_NO": 999, "REV_AT_EPOCH": 65449, "BSTAR": 0.00023121478, "MEAN_MOTION_DOT": 1.378e-05, "MEAN_MOTION_DDOT": 0}, "tle": {"line1": "1 37056U 99025EEQ 25349.34000670  .00001378  00000+0  23121-3 0  9999", "line2": "2 37056  98.9821  11.8015 0268851 138.0518 224.1615 14.50459153654498"}}, "geometry": {"type": "Point", "coordinates": [7.79863633818606, 30.792559247229914]}}, {"type": "Feature", "properties": {"norad_id": 37057, "name": "FENGYUN 1C DEB", "group": "fengyun-1c-debris", "lat": 74.20239735344326, "lon": -140.91937674959573, "alt_km": 711.624240724309, "timestamp": "2025-12-16T15:45:51.335006+00:00", "meta": {"OBJECT_NAME": "FENGYUN 1C DEB", "OBJECT_ID": "1999-025EER", "EPOCH": "2025-12-15T06:35:50.909856", "MEAN_MOTION": 13.96112011, "ECCENTRICITY": 0.02852276, "INCLINATION": 98.9234, "RA_OF_ASC_NODE": 4.0073, "ARG_OF_PERICENTER": 132.4515, "MEAN_ANOMALY": 230.1147, "EPHEMERIS_TYPE": 0, "CLASSIFICATION_TYPE": "U", "NORAD_CAT_ID": 37057, "ELEMENT_SET_NO": 999, "REV_AT_EPOCH": 63633, "BSTAR": 0.00043215899, "MEAN_MOTION_DOT": 7.94e-06, "MEAN_MOTION_DDOT": 0}, "tle": {"line1": "1 37057U 99025EER 25349.27489479  .00000794  00000+0  43216-3 0  9998", "line2": "2 37057  98.9234   4.0073 0285227 132.4515 230.1147 13.96112011636334"}}, "geometry": {"type": "Point", "coordinates": [-140.91937674959573, 74.20239735344326]}}, {"type": "Feature", "properties": {"norad_id": 37061, "name": "FENGYUN 1C DEB", "group": "fengyun-1c-debris", "lat": -6.301777432062333, "lon": 55.034666347838915, "alt_km": 605.0048512295398, "timestamp": "2025-12-16T15:45:51.335016+00:00", "meta": {"OBJECT_NAME": "FENGYUN 1C DEB", "OBJECT_ID": "1999-025EEV", "EPOCH": "2025-12-14T10:46:55.893792", "MEAN_MOTION": 13.13545226, "ECCENTRICITY": 0.08017009, "INCLINATION": 98.0852, "RA_OF_ASC_NODE": 52.431, "ARG_OF_PERICENTER": 1.338, "MEAN_ANOMALY": 358.9644, "EPHEMERIS_TYPE": 0, "CLASSIFICATION_TYPE": "U", "NORAD_CAT_ID": 37061, "ELEMENT_SET_NO": 999, "REV_AT_EPOCH": 8178, "BSTAR": 0.0025129601, "MEAN_MOTION_DOT": 4.866e-05, "MEAN_MOTION_DDOT": 0}, "tle": {"line1": "1 37061U 99025EEV 25348.44925803  .00004866  00000+0  25130-2 0  9995", "line2": "2 37061  98.0852  52.4310 0801700   1.3380 358.9644 13.13545226 81782"}}, "geometry": {"type": "Point", "coordinates": [55.034666347838915, -6.301777432062333]}}, {"type": "Feature", "properties": {"norad_id": 37064, "name": "FENGYUN 1C DEB", "group": "fengyun-1c-debris", "lat": -79.55691279163192, "lon": -95.5347067154599, "alt_km": 922.5249216260818, "timestamp": "2025-12-16T15:45:51.335026+00:00", "meta": {"OBJECT_NAME": "FENGYUN 1C DEB", "OBJECT_ID": "1999-025EEY", "EPOCH": "2025-11-25T16:29:09.460320", "MEAN_MOTION": 14.15612933, "ECCENTRICITY": 0.01070067, "INCLINATION": 98.9095, "RA_OF_ASC_NODE": 121.83, "ARG_OF_PERICENTER": 150.7609, "MEAN_ANOMALY": 209.9612, "EPHEMERIS_TYPE": 0, "CLASSIFICATION_TYPE": "U", "NORAD_CAT_ID": 37064, "ELEMENT_SET_NO": 999, "REV_AT_EPOCH": 81294, "BSTAR": 0.0049331234, "MEAN_MOTION_DOT": 0.00010179, "MEAN_MOTION_DDOT": 0}, "tle": {"line1": "1 37064U 99025EEY 25329.68691505  .00010179  00000+0  49331-2 0  9995", "line2": "2 37064  98.9095 121.8300 0107006 150.7609 209.9612 14.15612933812947"}}, "geometry": {"type": "Point", "coordinates": [-95.5347067154599, -79.55691279163192]}}, {"type": "Feature", "properties": {"norad_id": 37065, "name": "FENGYUN 1C DEB", "group": "fengyun-1c-debris", "lat": 65.72294370978747, "lon": 135.2349290901041, "alt_km": 1245.323849503765, "timestamp": "2025-12-16T15:45:51.335036+00:00", "meta": {"OBJECT_NAME": "FENGYUN 1C DEB", "OBJECT_ID": "1999-025EEZ", "EPOCH": "2025-12-13T18:30:23.335488", "MEAN_MOTION": 13.59126537, "ECCENTRICITY": 0.02987556, "INCLINATION": 103.2861, "RA_OF_ASC_NODE": 162.9273, "ARG_OF_PERICENTER": 240.3853, "MEAN_ANOMALY": 116.7203, "EPHEMERIS_TYPE": 0, "CLASSIFICATION_TYPE": "U", "NORAD_CAT_ID": 37065, "ELEMENT_SET_NO": 999, "REV_AT_EPOCH": 22216, "BSTAR": 0.0032978969, "MEAN_MOTION_DOT": 3.181e-05, "MEAN_MOTION_DDOT": 0}, "tle": {"line1": "1 37065U 99025EEZ 25347.77110342  .00003181  00000+0  32979-2 0  9996", "line2": "2 37065 103.2861 162.9273 0298755 240.3853 116.7203 13.59126537222160"}}, "geometry": {"type": "Point", "coordinates": [135.2349290901041, 65.72294370978747]}}]}